[{"OBJECT_NAME":"YAOGAN-35 05C","OBJECT_ID":"2022-109D","EPOCH":"2026-03-09T23:24:49.254048","MEAN_MOTION":15.2196891,"ECCENTRICITY":0.00028309,"INCLINATION":34.9905,"RA_OF_ASC_NODE":260.7893,"ARG_OF_PERICENTER":75.4847,"MEAN_ANOMALY":284.6181,"EPHEMERIS_TYPE":0,"CLASSIFICATION_TYPE":"U","NORAD_CAT_ID":53763,"ELEMENT_SET_NO":999,"REV_AT_EPOCH":19524,"BSTAR":0.00045958493,"MEAN_MOTION_DOT":0.00010718,"MEAN_MOTION_DDOT":0},{"OBJECT_NAME":"CZ-2F DEB","OBJECT_ID":"2026-024D","EPOCH":"2026-03-09T22:29:00.721824","MEAN_MOTION":15.26264439,"ECCENTRICITY":0.02293172,"INCLINATION":50.3196,"RA_OF_ASC_NODE":17.4686,"ARG_OF_PERICENTER":280.8979,"MEAN_ANOMALY":76.6257,"EPHEMERIS_TYPE":0,"CLASSIFICATION_TYPE":"U","NORAD_CAT_ID":67692,"ELEMENT_SET_NO":999,"REV_AT_EPOCH":466,"BSTAR":0.0047386771,"MEAN_MOTION_DOT":0.00280979,"MEAN_MOTION_DDOT":0}]
